[{"OBJECT_NAME":"BRO-15","OBJECT_ID":"2024-149CP","EPOCH":"2026-03-09T18:52:33.918816","MEAN_MOTION":14.95892184,"ECCENTRICITY":0.00093198,"INCLINATION":97.6864,"RA_OF_ASC_NODE":146.0377,"ARG_OF_PERICENTER":65.4416,"MEAN_ANOMALY":294.7775,"EPHEMERIS_TYPE":0,"CLASSIFICATION_TYPE":"U","NORAD_CAT_ID":60553,"ELEMENT_SET_NO":999,"REV_AT_EPOCH":8514,"BSTAR":7.8021491e-5,"MEAN_MOTION_DOT":8.16e-6,"MEAN_MOTION_DDOT":0},{"OBJECT_NAME":"STARLINK-34675","OBJECT_ID":"2025-150V","EPOCH":"2026-03-09T14:23:12.206112","MEAN_MOTION":14.98331751,"ECCENTRICITY":0.0003422,"INCLINATION":70.0017,"RA_OF_ASC_NODE":134.6736,"ARG_OF_PERICENTER":269.9117,"MEAN_ANOMALY":90.165,"EPHEMERIS_TYPE":0,"CLASSIFICATION_TYPE":"U","NORAD_CAT_ID":64809,"ELEMENT_SET_NO":999,"REV_AT_EPOCH":3650,"BSTAR":0.0005531,"MEAN_MOTION_DOT":6.513e-5,"MEAN_MOTION_DDOT":0}]
